STARLINK-1154           
1 45198U 20012W   26068.10422000  .00095128  00000+0  19057-2 0  9991
2 45198  53.0499  12.8007 0007244  86.2050 273.9784 15.45952497335209
MANDRAKE 2 ABLE         
1 48907U 21059AE  26068.49150480  .00024904  00000+0  43384-3 0  9991
2 48907  97.7040 250.9760 0004784   6.4336 353.6976 15.50735817261652
